{"type": "FeatureCollection", "features": [ {"type": "Feature", "properties": {"norad_id": 28659, "name": "DIRECTV 8", "group": "intelsat", "lat": 0.02677597477653001, "lon": 133.82655218543115, "alt_km": 35797.626894623405, "timestamp": "2025-12-26T10:30:49.927051+00:00", "meta": {"OBJECT_NAME": "DIRECTV 8", "OBJECT_ID": "2005-019A", "EPOCH": "2025-12-26T04:39:38.472192", "MEAN_MOTION": 1.00271756, "ECCENTRICITY": 0.0003114, "INCLINATION": 0.0128, "RA_OF_ASC_NODE": 55.1123, "ARG_OF_PERICENTER": 229.9878, "MEAN_ANOMALY": 120.7127, "EPHEMERIS_TYPE": 0, "CLASSIFICATION_TYPE": "U", "NORAD_CAT_ID": 28659, "ELEMENT_SET_NO": 999, "REV_AT_EPOCH": 7533, "BSTAR": 0, "MEAN_MOTION_DOT": 2.3e-07, "MEAN_MOTION_DDOT": 0}, "tle": {"line1": "1 28659U 05019A   25360.19419528  .00000023  00000+0  00000+0 0  9993", "line2": "2 28659   0.0128  55.1123 0003114 229.9878 120.7127  1.00271756 75331"}}, "geometry": {"type": "Point", "coordinates": [133.82655218543115, 0.02677597477653001]}}, {"type": "Feature", "properties": {"norad_id": 28702, "name": "GALAXY 28 (G-28)", "group": "intelsat", "lat": 2.862752050596843, "lon": 171.78451486094175, "alt_km": 35689.0243379931, "timestamp": "2025-12-26T10:30:49.927062+00:00", "meta": {"OBJECT_NAME": "GALAXY 28 (G-28)", "OBJECT_ID": "2005-022A", "EPOCH": "2025-12-26T03:38:03.596064", "MEAN_MOTION": 1.00599772, "ECCENTRICITY": 0.0003476, "INCLINATION": 2.8542, "RA_OF_ASC_NODE": 81.1257, "ARG_OF_PERICENTER": 160.4398, "MEAN_ANOMALY": 186.4458, "EPHEMERIS_TYPE": 0, "CLASSIFICATION_TYPE": "U", "NORAD_CAT_ID": 28702, "ELEMENT_SET_NO": 999, "REV_AT_EPOCH": 5023, "BSTAR": 0, "MEAN_MOTION_DOT": -2.32e-06, "MEAN_MOTION_DDOT": 0}, "tle": {"line1": "1 28702U 05022A   25360.15143051 -.00000232  00000+0  00000+0 0  9990", "line2": "2 28702   2.8542  81.1257 0003476 160.4398 186.4458  1.00599772 50233"}}, "geometry": {"type": "Point", "coordinates": [171.78451486094175, 2.862752050596843]}}, {"type": "Feature", "properties": {"norad_id": 29236, "name": "GALAXY 16 (G-16)", "group": "intelsat", "lat": -0.008704521256487935, "lon": 153.84004601977583, "alt_km": 35793.06744180359, "timestamp": "2025-12-26T10:30:49.927075+00:00", "meta": {"OBJECT_NAME": "GALAXY 16 (G-16)", "OBJECT_ID": "2006-023A", "EPOCH": "2025-12-26T02:31:07.100256", "MEAN_MOTION": 1.00269716, "ECCENTRICITY": 0.0002789, "INCLINATION": 0.0031, "RA_OF_ASC_NODE": 236.6116, "ARG_OF_PERICENTER": 40.0302, "MEAN_ANOMALY": 116.978, "EPHEMERIS_TYPE": 0, "CLASSIFICATION_TYPE": "U", "NORAD_CAT_ID": 29236, "ELEMENT_SET_NO": 999, "REV_AT_EPOCH": 7123, "BSTAR": 0, "MEAN_MOTION_DOT": 0, "MEAN_MOTION_DDOT": 0}, "tle": {"line1": "1 29236U 06023A   25360.10494329  .00000000  00000+0  00000+0 0  9999", "line2": "2 29236   0.0031 236.6116 0002789  40.0302 116.9780  1.00269716 71235"}}, "geometry": {"type": "Point", "coordinates": [153.84004601977583, -0.008704521256487935]}}, {"type": "Feature", "properties": {"norad_id": 29494, "name": "DIRECTV 9S", "group": "intelsat", "lat": 1.8502816731743745, "lon": 151.64349597355812, "alt_km": 35793.92125719285, "timestamp": "2025-12-26T10:30:49.927086+00:00", "meta": {"OBJECT_NAME": "DIRECTV 9S", "OBJECT_ID": "2006-043A", "EPOCH": "2025-12-26T01:32:00.300768", "MEAN_MOTION": 1.00271558, "ECCENTRICITY": 0.0003053, "INCLINATION": 1.9726, "RA_OF_ASC_NODE": 83.07, "ARG_OF_PERICENTER": 196.9132, "MEAN_ANOMALY": 96.6295, "EPHEMERIS_TYPE": 0, "CLASSIFICATION_TYPE": "U", "NORAD_CAT_ID": 29494, "ELEMENT_SET_NO": 999, "REV_AT_EPOCH": 4964, "BSTAR": 0, "MEAN_MOTION_DOT": -9.2e-07, "MEAN_MOTION_DDOT": 0}, "tle": {"line1": "1 29494U 06043A   25360.06389237 -.00000092  00000+0  00000+0 0  9995", "line2": "2 29494   1.9726  83.0700 0003053 196.9132  96.6295  1.00271558 49644"}}, "geometry": {"type": "Point", "coordinates": [151.64349597355812, 1.8502816731743745]}}, {"type": "Feature", "properties": {"norad_id": 31307, "name": "GALAXY 17 (G-17)", "group": "intelsat", "lat": 2.534354798527257, "lon": 167.8306570434808, "alt_km": 35785.05286845774, "timestamp": "2025-12-26T10:30:49.927098+00:00", "meta": {"OBJECT_NAME": "GALAXY 17 (G-17)", "OBJECT_ID": "2007-016B", "EPOCH": "2025-12-26T03:10:25.167072", "MEAN_MOTION": 1.00271868, "ECCENTRICITY": 0.0005613, "INCLINATION": 2.5317, "RA_OF_ASC_NODE": 82.1318, "ARG_OF_PERICENTER": 173.8914, "MEAN_ANOMALY": 161.476, "EPHEMERIS_TYPE": 0, "CLASSIFICATION_TYPE": "U", "NORAD_CAT_ID": 31307, "ELEMENT_SET_NO": 999, "REV_AT_EPOCH": 6806, "BSTAR": 0, "MEAN_MOTION_DOT": -1.85e-06, "MEAN_MOTION_DDOT": 0}, "tle": {"line1": "1 31307U 07016B   25360.13223573 -.00000185  00000+0  00000+0 0  9993", "line2": "2 31307   2.5317  82.1318 0005613 173.8914 161.4760  1.00271868 68063"}}, "geometry": {"type": "Point", "coordinates": [167.8306570434808, 2.534354798527257]}}, {"type": "Feature", "properties": {"norad_id": 31862, "name": "DIRECTV 10", "group": "intelsat", "lat": 0.005205520060621527, "lon": 150.12373169094803, "alt_km": 35783.49112654774, "timestamp": "2025-12-26T10:30:49.927109+00:00", "meta": {"OBJECT_NAME": "DIRECTV 10", "OBJECT_ID": "2007-032A", "EPOCH": "2025-12-25T09:09:15.831072", "MEAN_MOTION": 1.00280696, "ECCENTRICITY": 7.66e-05, "INCLINATION": 0.0126, "RA_OF_ASC_NODE": 126.575, "ARG_OF_PERICENTER": 111.4706, "MEAN_ANOMALY": 250.6263, "EPHEMERIS_TYPE": 0, "CLASSIFICATION_TYPE": "U", "NORAD_CAT_ID": 31862, "ELEMENT_SET_NO": 999, "REV_AT_EPOCH": 4385, "BSTAR": 0, "MEAN_MOTION_DOT": -8.3e-07, "MEAN_MOTION_DDOT": 0}, "tle": {"line1": "1 31862U 07032A   25359.38143323 -.00000083  00000+0  00000+0 0  9993", "line2": "2 31862   0.0126 126.5750 0000766 111.4706 250.6263  1.00280696 43852"}}, "geometry": {"type": "Point", "coordinates": [150.12373169094803, 0.005205520060621527]}}, {"type": "Feature", "properties": {"norad_id": 32253, "name": "INTELSAT 11 (IS-11)", "group": "intelsat", "lat": -1.174449634207144, "lon": 58.437661358890814, "alt_km": 36167.07561073712, "timestamp": "2025-12-26T10:30:49.927121+00:00", "meta": {"OBJECT_NAME": "INTELSAT 11 (IS-11)", "OBJECT_ID": "2007-044B", "EPOCH": "2025-12-26T01:50:44.833920", "MEAN_MOTION": 0.99053068, "ECCENTRICITY": 0.0008639, "INCLINATION": 3.1129, "RA_OF_ASC_NODE": 80.8271, "ARG_OF_PERICENTER": 171.6859, "MEAN_ANOMALY": 37.0835, "EPHEMERIS_TYPE": 0, "CLASSIFICATION_TYPE": "U", "NORAD_CAT_ID": 32253, "ELEMENT_SET_NO": 999, "REV_AT_EPOCH": 6673, "BSTAR": 0, "MEAN_MOTION_DOT": -2.09e-06, "MEAN_MOTION_DDOT": 0}, "tle": {"line1": "1 32253U 07044B   25360.07690780 -.00000209  00000+0  00000+0 0  9993", "line2": "2 32253   3.1129  80.8271 0008639 171.6859  37.0835  0.99053068 66730"}}, "geometry": {"type": "Point", "coordinates": [58.437661358890814, -1.174449634207144]}}, {"type": "Feature", "properties": {"norad_id": 32388, "name": "HORIZONS-2", "group": "intelsat", "lat": 2.1478559963008808, "lon": 179.02673851760338, "alt_km": 35790.46608775044, "timestamp": "2025-12-26T10:30:49.927133+00:00", "meta": {"OBJECT_NAME": "HORIZONS-2", "OBJECT_ID": "2007-063B", "EPOCH": "2025-12-26T02:50:28.711104", "MEAN_MOTION": 1.00269118, "ECCENTRICITY": 0.0004827, "INCLINATION": 2.1544, "RA_OF_ASC_NODE": 82.8147, "ARG_OF_PERICENTER": 197.2172, "MEAN_ANOMALY": 143.6493, "EPHEMERIS_TYPE": 0, "CLASSIFICATION_TYPE": "U", "NORAD_CAT_ID": 32388, "ELEMENT_SET_NO": 999, "REV_AT_EPOCH": 6607, "BSTAR": 0, "MEAN_MOTION_DOT": -2.32e-06, "MEAN_MOTION_DDOT": 0}, "tle": {"line1": "1 32388U 07063B   25360.11838786 -.00000232  00000+0  00000+0 0  9994", "line2": "2 32388   2.1544  82.8147 0004827 197.2172 143.6493  1.00269118 66079"}}, "geometry": {"type": "Point", "coordinates": [179.02673851760338, 2.1478559963008808]}}, {"type": "Feature", "properties": {"norad_id": 32729, "name": "DIRECTV 11", "group": "intelsat", "lat": -0.025053861306167526, "lon": 153.61343773613274, "alt_km": 35786.949557420885, "timestamp": "2025-12-26T10:30:49.927150+00:00", "meta": {"OBJECT_NAME": "DIRECTV 11", "OBJECT_ID": "2008-013A", "EPOCH": "2025-12-24T22:53:59.758368", "MEAN_MOTION": 1.00260442, "ECCENTRICITY": 0.0001047, "INCLINATION": 0.0475, "RA_OF_ASC_NODE": 199.7105, "ARG_OF_PERICENTER": 11.4593, "MEAN_ANOMALY": 126.8496, "EPHEMERIS_TYPE": 0, "CLASSIFICATION_TYPE": "U", "NORAD_CAT_ID": 32729, "ELEMENT_SET_NO": 999, "REV_AT_EPOCH": 4384, "BSTAR": 0, "MEAN_MOTION_DOT": -1.03e-06, "MEAN_MOTION_DDOT": 0}, "tle": {"line1": "1 32729U 08013A   25358.95416387 -.00000103  00000+0  00000+0 0  9994", "line2": "2 32729   0.0475 199.7105 0001047  11.4593 126.8496  1.00260442 43842"}}, "geometry": {"type": "Point", "coordinates": [153.61343773613274, -0.025053861306167526]}}, {"type": "Feature", "properties": {"norad_id": 32951, "name": "GALAXY 18 (G-18)", "group": "intelsat", "lat": 0.02594721020176169, "lon": 129.86520753554697, "alt_km": 35798.15085689011, "timestamp": "2025-12-26T10:30:49.927161+00:00", "meta": {"OBJECT_NAME": "GALAXY 18 (G-18)", "OBJECT_ID": "2008-024A", "EPOCH": "2025-12-26T04:39:38.472192", "MEAN_MOTION": 1.00271919, "ECCENTRICITY": 0.0003218, "INCLINATION": 0.0165, "RA_OF_ASC_NODE": 351.6105, "ARG_OF_PERICENTER": 291.1778, "MEAN_ANOMALY": 119.0627, "EPHEMERIS_TYPE": 0, "CLASSIFICATION_TYPE": "U", "NORAD_CAT_ID": 32951, "ELEMENT_SET_NO": 999, "REV_AT_EPOCH": 4411, "BSTAR": 0, "MEAN_MOTION_DOT": 4.7e-07, "MEAN_MOTION_DDOT": 0}, "tle": {"line1": "1 32951U 08024A   25360.19419528  .00000047  00000+0  00000+0 0  9998", "line2": "2 32951   0.0165 351.6105 0003218 291.1778 119.0627  1.00271919 44110"}}, "geometry": {"type": "Point", "coordinates": [129.86520753554697, 0.02594721020176169]}}]}